NORAD_CAT_ID,OBJECT_NAME,OBJECT_TYPE,EPOCH,MEAN_MOTION,ECCENTRICITY,INCLINATION,RA_OF_ASC_NODE,ARG_OF_PERICENTER,MEAN_ANOMALY,BSTAR,MEAN_MOTION_DOT,MEAN_MOTION_DDOT,TLE_LINE0,TLE_LINE1,TLE_LINE2,SEMIMAJOR_AXIS,PERIOD,APOGEE,PERIGEE,DECAYED
54085.0,STARLINK-5166,PAYLOAD,2022-12-19 22:00:00,15.26066263,0.0001240999999999,53.2174,212.8157,95.6262,343.3674,-0.047906,-0.01153971,0.0,0 STARLINK-5166,1 54085U 22136AL  22353.91667824 -.01153971  00000-0 -47906-1 0  9990,2 54085  53.2174 212.8157 0001241  95.6262 343.3674 15.26066263  1301,6865.723000000001,94.36,488.44,486.735,0.0
54085.0,STARLINK-5166,PAYLOAD,2022-12-20 14:00:01,15.24443788,0.0001381,53.2169,209.7452,95.96,45.6431,-0.050591,-0.01159885,0.0,0 STARLINK-5166,1 54085U 22136AL  22354.58334491 -.01159885  00000-0 -50591-1 0  9999,2 54085  53.2169 209.7452 0001381  95.9600  45.6431 15.24443788  1304,6870.593000000003,94.461,493.407,491.509,0.0
54085.0,STARLINK-5166,PAYLOAD,2022-12-20 16:00:00,15.24233096,0.000136,53.2173,209.3621,100.9371,138.2209,-0.050419,-0.01149492,0.0,0 STARLINK-5166,1 54085U 22136AL  22354.66667824 -.01149492  00000-0 -50419-1 0  9999,2 54085  53.2173 209.3621 0001360 100.9371 138.2209 15.24233096 10066,6871.226,94.474,494.026,492.157,0.0
54085.0,STARLINK-5166,PAYLOAD,2022-12-21 14:00:01,15.21995394,0.0001607,53.2175,205.1551,121.5996,106.5905,-0.053875,-0.01149049,0.0,0 STARLINK-5166,1 54085U 22136AL  22355.58334491 -.01149049  00000-0 -53875-1 0  9999,2 54085  53.2175 205.1551 0001607 121.5996 106.5905 15.21995394  1301,6877.96,94.613,500.93,498.719,0.0
54085.0,STARLINK-5166,PAYLOAD,2022-12-22 14:00:01,15.19552794,0.0001363,53.2176,200.5826,112.3281,193.6452,-0.057754,-0.011465,0.0,0 STARLINK-5166,1 54085U 22136AL  22356.58334491 -.01146500  00000-0 -57754-1 0  9999,2 54085  53.2176 200.5826 0001363 112.3281 193.6452 15.19552794  1304,6885.328,94.765,508.132,506.255,0.0
54085.0,STARLINK-5166,PAYLOAD,2022-12-22 16:00:00,15.19351002,0.000122,53.2176,200.203,105.0356,297.0216,-0.058284,-0.0114991,0.0,0 STARLINK-5166,1 54085U 22136AL  22356.66667824 -.01149910  00000-0 -58284-1 0  9994,2 54085  53.2176 200.2030 0001220 105.0356 297.0216 15.19351002 10364,6885.938,94.777,508.643,506.963,0.0
54085.0,STARLINK-5166,PAYLOAD,2022-12-22 22:00:00,15.18740273,0.0001281999999999,53.2175,199.0643,106.1449,223.7989,-0.05929,-0.01149197,0.0,0 STARLINK-5166,1 54085U 22136AL  22356.91667824 -.01149197  00000-0 -59290-1 0  9997,2 54085  53.2175 199.0643 0001282 106.1449 223.7989 15.18740273  1309,6887.784000000002,94.815,510.532,508.766,0.0
54085.0,STARLINK-5166,PAYLOAD,2022-12-23 14:00:01,15.17116811,0.0001232,53.2166,196.0279,105.7432,269.2091,-0.062396,-0.01153496,0.0,0 STARLINK-5166,1 54085U 22136AL  22357.58334491 -.01153496  00000-0 -62396-1 0  9990,2 54085  53.2166 196.0279 0001232 105.7432 269.2091 15.17116811  1306,6892.696999999999,94.917,515.411,513.712,0.0
54085.0,STARLINK-5166,PAYLOAD,2022-12-23 16:00:00,15.1690994,0.0001318,53.2172,195.6493,98.3141,11.9917,-0.062584,-0.01150375,0.0,0 STARLINK-5166,1 54085U 22136AL  22357.66667824 -.01150375  00000-0 -62584-1 0  9990,2 54085  53.2172 195.6493 0001318  98.3141  11.9917 15.16909940 10519,6893.323,94.93,516.097,514.28,0.0
54085.0,STARLINK-5166,PAYLOAD,2022-12-23 22:00:01,15.16302202,0.0001332,53.217,194.5149,120.0127,276.0412,-0.0639,-0.01153932,0.0,0 STARLINK-5166,1 54085U 22136AL  22357.91668981 -.01153932  00000-0 -63900-1 0  9998,2 54085  53.2170 194.5149 0001332 120.0127 276.0412 15.16302202  1305,6895.165,94.968,517.948,516.112,0.0
54085.0,STARLINK-5166,PAYLOAD,2022-12-24 14:00:01,15.14676074,0.0001306,53.2167,191.4896,100.483,334.6507,-0.06698,-0.01154598,0.0,0 STARLINK-5166,1 54085U 22136AL  22358.58334491 -.01154598  00000-0 -66980-1 0  9998,2 54085  53.2167 191.4896 0001306 100.4830 334.6507 15.14676074  1305,6900.099,95.07,522.865,521.063,0.0
54085.0,STARLINK-5166,PAYLOAD,2022-12-24 16:00:00,15.1446707,0.0001418,53.2173,191.1125,99.5888,70.1657,-0.0669429999999999,-0.01147723,0.0,0 STARLINK-5166,1 54085U 22136AL  22358.66667824 -.01147723  00000-0 -66943-1 0  9997,2 54085  53.2173 191.1125 0001418  99.5888  70.1657 15.14467070 10660,6900.734,95.083,523.577,521.62,0.0
54085.0,STARLINK-5166,PAYLOAD,2022-12-24 22:00:00,15.13863003,0.0001398,53.2169,189.9825,113.3218,339.9156,-0.068661,-0.01156448,0.0,0 STARLINK-5166,1 54085U 22136AL  22358.91667824 -.01156448  00000-0 -68661-1 0  9998,2 54085  53.2169 189.9825 0001398 113.3218 339.9156 15.13863003  1302,6902.57,95.121,525.4,523.47,0.0
54085.0,STARLINK-5166,PAYLOAD,2022-12-25 14:00:01,15.12237127,0.0001408,53.2166,186.9684,101.4667,25.0467,-0.071974,-0.01157842,0.0,0 STARLINK-5166,1 54085U 22136AL  22359.58334491 -.01157842  00000-0 -71974-1 0  9993,2 54085  53.2166 186.9684 0001408 101.4667  25.0467 15.12237127 10801,6907.516,95.223,530.354,528.409,0.0
54085.0,STARLINK-5166,PAYLOAD,2022-12-26 00:00:00,15.11207638,0.0001595999999999,53.2171,185.0911,121.9006,113.4287,-0.072813,-0.01139639,0.0,0 STARLINK-5166,1 54085U 22136AL  22360.00001157 -.01139639  00000-0 -72813-1 0  9999,2 54085  53.2171 185.0911 0001596 121.9006 113.4287 15.11207638  1302,6910.653,95.288,533.621,531.415,0.0
54085.0,STARLINK-5166,PAYLOAD,2022-12-26 14:00:01,15.09683951,0.0001631999999999,53.2169,182.4642,106.8471,62.2681,-0.056583,-0.00857129,0.0,0 STARLINK-5166,1 54085U 22136AL  22360.58334491 -.00857129  00000-0 -56583-1 0  9998,2 54085  53.2169 182.4642 0001632 106.8471  62.2681 15.09683951  1302,6915.302,95.384,538.2959999999998,536.038,0.0
54085.0,STARLINK-5166,PAYLOAD,2022-12-26 22:00:00,15.08955571,0.0001667,53.217,180.9683,116.2412,65.1224,-0.011786,-0.001837,0.0,0 STARLINK-5166,1 54085U 22136AL  22360.91667824 -.00183700  00000-0 -11786-1 0  9997,2 54085  53.2170 180.9683 0001667 116.2412  65.1224 15.08955571  1304,6917.526999999999,95.43,540.545,538.239,0.0
54085.0,STARLINK-5166,PAYLOAD,2022-12-27 00:00:00,15.08845719,0.000164,53.2171,180.5939,119.2746,155.0425,-0.00092818,-0.00015032,0.0,0 STARLINK-5166,1 54085U 22136AL  22361.00001157 -.00015032  00000-0 -92818-3 0  9998,2 54085  53.2171 180.5939 0001640 119.2746 155.0425 15.08845719 11023,6917.863,95.437,540.862,538.5930000000002,0.0
54085.0,STARLINK-5166,PAYLOAD,2022-12-27 14:00:01,15.08883125,0.0001573,53.2141,177.9755,112.8203,91.7632,-0.0032097,-0.00051069,0.0,0 STARLINK-5166,1 54085U 22136AL  22361.58334491 -.00051069  00000-0 -32097-2 0  9993,2 54085  53.2141 177.9755 0001573 112.8203  91.7632 15.08883125  1307,6917.749,95.435,540.702,538.525,0.0
54085.0,STARLINK-5166,PAYLOAD,2022-12-27 22:00:00,15.08809427,0.0001361999999999,53.214,176.4804,104.081,112.1419,0.0002139,3.115e-05,0.0,0 STARLINK-5166,1 54085U 22136AL  22361.91667824  .00003115  00000-0  21390-3 0  9991,2 54085  53.2140 176.4804 0001362 104.0810 112.1419 15.08809427  1302,6917.974,95.439,540.781,538.8969999999998,0.0
54085.0,STARLINK-5166,PAYLOAD,2022-12-28 02:00:01,15.08841231,0.0001314,53.2137,175.7315,105.5088,296.4877,-0.0055289,-0.00087218,0.0,0 STARLINK-5166,1 54085U 22136AL  22362.08334491 -.00087218  00000-0 -55289-2 0  9992,2 54085  53.2137 175.7315 0001314 105.5088 296.4877 15.08841231 11187,6917.877,95.437,540.651,538.8330000000002,0.0
54085.0,STARLINK-5166,PAYLOAD,2022-12-28 14:00:01,15.08798166,0.0001554999999999,53.214,173.4864,111.1447,128.167,0.0030247,0.00048124,0.0,0 STARLINK-5166,1 54085U 22136AL  22362.58334491  .00048124  00000-0  30247-2 0  9995,2 54085  53.2140 173.4864 0001555 111.1447 128.1670 15.08798166  1307,6918.0080000000025,95.44,540.9490000000002,538.798,0.0
54085.0,STARLINK-5166,PAYLOAD,2022-12-28 18:00:00,15.08823827,0.0001501,53.2138,172.7391,105.1511,319.9367,0.0010084,0.0001579,0.0,0 STARLINK-5166,1 54085U 22136AL  22362.75001157  .00015790  00000-0  10084-2 0  9994,2 54085  53.2138 172.7391 0001501 105.1511 319.9367 15.08823827 11281,6917.93,95.439,540.8330000000002,538.756,0.0
54085.0,STARLINK-5166,PAYLOAD,2022-12-28 22:00:00,15.08822017,0.0001386999999999,53.214,171.9914,102.0443,148.8378,0.0030618999999999,0.00048755,0.0,0 STARLINK-5166,1 54085U 22136AL  22362.91667824  .00048755  00000-0  30619-2 0  9994,2 54085  53.2140 171.9914 0001387 102.0443 148.8378 15.08822017  1301,6917.935,95.439,540.76,538.841,0.0
54085.0,STARLINK-5166,PAYLOAD,2022-12-29 14:00:01,15.08868019,0.0001462,53.2142,168.9971,109.2761,164.8043,-0.0012556,-0.00020231,0.0,0 STARLINK-5166,1 54085U 22136AL  22363.58334491 -.00020231  00000-0 -12556-2 0  9990,2 54085  53.2142 168.9971 0001462 109.2761 164.8043 15.08868019  1307,6917.795,95.436,540.6709999999998,538.648,0.0
54085.0,STARLINK-5166,PAYLOAD,2022-12-30 00:00:00,15.08872376,0.000136,53.214,167.1275,99.2995,279.3037,-0.002155,-0.00034451,0.0,0 STARLINK-5166,1 54085U 22136AL  22364.00001157 -.00034451  00000-0 -21550-2 0  9991,2 54085  53.2140 167.1275 0001360  99.2995 279.3037 15.08872376 11472,6917.781,95.436,540.587,538.706,0.0
54085.0,STARLINK-5166,PAYLOAD,2022-12-30 14:00:01,15.08877669,0.0001491,53.2146,164.5078,103.227,205.691,-0.0034194,-0.00054353,0.0,0 STARLINK-5166,1 54085U 22136AL  22364.58334491 -.00054353  00000-0 -34194-2 0  9995,2 54085  53.2146 164.5078 0001491 103.2270 205.6910 15.08877669  1300,6917.765,95.435,540.6619999999998,538.599,0.0
54085.0,STARLINK-5166,PAYLOAD,2022-12-30 16:00:00,15.08885554,0.0001468,53.2145,164.1342,97.7721,304.0495,-0.0058959,-0.00093027,0.0,0 STARLINK-5166,1 54085U 22136AL  22364.66667824 -.00093027  00000-0 -58959-2 0  9999,2 54085  53.2145 164.1342 0001468  97.7721 304.0495 15.08885554 11575,6917.741,95.435,540.622,538.591,0.0
54085.0,STARLINK-5166,PAYLOAD,2022-12-31 00:00:00,15.088095999999998,0.0001392,53.2144,162.638,87.0503,326.3878,0.00056663,8.734e-05,0.0,0 STARLINK-5166,1 54085U 22136AL  22365.00001157  .00008734  00000-0  56663-3 0  9999,2 54085  53.2144 162.6380 0001392  87.0503 326.3878 15.08809600 11621,6917.973000000001,95.439,540.8009999999998,538.875,0.0
